{"@context":"https:\/\/www.w3.org\/ns\/hydra\/context.jsonld","@id":"https:\/\/tle.ivanstanojevic.me\/api\/tle\/","@type":"Collection","totalItems":11190,"member":[{"@id":"https:\/\/tle.ivanstanojevic.me\/api\/tle\/44859","@type":"TleModel","satelliteId":44859,"name":"IHOPSAT-TD","date":"2021-06-11T00:13:43+00:00","line1":"1 44859U 19089H   21162.00952803  .00000096  00000-0  14326-4 0  9991","line2":"2 44859  36.9696 142.7669 0005074  56.0360 304.0863 14.98550483 82159"},{"@id":"https:\/\/tle.ivanstanojevic.me\/api\/tle\/25544","@type":"TleModel","satelliteId":25544,"name":"ISS (ZARYA)","date":"2021-06-11T05:52:09+00:00","line1":"1 25544U 98067A   21162.24455464  .00001369  00000-0  33046-4 0  9995","line2":"2 25544  51.6454  12.1174 0003601  83.6963  83.5732 15.48975526287678"},{"@id":"https:\/\/tle.ivanstanojevic.me\/api\/tle\/43694","@type":"TleModel","satelliteId":43694,"name":"PROXIMA I","date":"2021-06-10T12:23:25+00:00","line1":"1 43694U 18088E   21161.51626690  .00001160  00000-0  47375-4 0  9995","line2":"2 43694  85.0328 199.8712 0020472  50.9088 309.3971 15.22951944143323"},{"@id":"https:\/\/tle.ivanstanojevic.me\/api\/tle\/43722","@type":"TleModel","satelliteId":43722,"name":"CENTAURI-2","date":"2021-06-10T17:52:17+00:00","line1":"1 43722U 18096D   21161.74465131  .00002464  00000-0  87364-4 0  9992","line2":"2 43722  97.3878 239.7172 0014789 295.9393  64.0324 15.29965414141137"},{"@id":"https:\/\/tle.ivanstanojevic.me\/api\/tle\/43809","@type":"TleModel","satelliteId":43809,"name":"CENTAURI-1","date":"2021-06-10T17:27:59+00:00","line1":"1 43809U 18099BD  21161.72776989  .00000321  00000-0  33830-4 0  9994","line2":"2 43809  97.6639 232.7591 0016597  76.4759 283.8311 14.95832428137194"},{"@id":"https:\/\/tle.ivanstanojevic.me\/api\/tle\/43696","@type":"TleModel","satelliteId":43696,"name":"PROXIMA II","date":"2021-06-10T20:13:57+00:00","line1":"1 43696U 18088G   21161.84303214  .00001108  00000-0  45206-4 0  9990","line2":"2 43696  85.0329 199.6635 0020493  49.7781 310.5251 15.22950553143361"},{"@id":"https:\/\/tle.ivanstanojevic.me\/api\/tle\/47966","@type":"TleModel","satelliteId":47966,"name":"CENTAURI-3 (TYVAK-0210)","date":"2021-06-10T23:11:32+00:00","line1":"1 47966U 21023B   21161.96634704  .00000677  00000-0  63945-4 0  9991","line2":"2 47966  45.0052  41.1212 0006921   6.2684 353.8276 15.04699915 12056"},{"@id":"https:\/\/tle.ivanstanojevic.me\/api\/tle\/45787","@type":"TleModel","satelliteId":45787,"name":"STARLINK-1517","date":"2021-06-11T04:01:45+00:00","line1":"1 45787C 20038BK  21162.16789216 -.00027258  00000-0 -18270-2 0  1624","line2":"2 45787  53.0543  54.2188 0001721  66.8461  88.2870 15.06410866    14"},{"@id":"https:\/\/tle.ivanstanojevic.me\/api\/tle\/47302","@type":"TleModel","satelliteId":47302,"name":"YAOGAN-33","date":"2021-06-11T02:21:18+00:00","line1":"1 47302U 20103A   21162.09813153  .00000069  00000-0  24535-4 0  9992","line2":"2 47302  98.2539  51.2522 0001792  83.9207 276.2204 14.59153672 24135"},{"@id":"https:\/\/tle.ivanstanojevic.me\/api\/tle\/33591","@type":"TleModel","satelliteId":33591,"name":"NOAA 19","date":"2021-06-11T00:48:51+00:00","line1":"1 33591U 09005A   21162.03392558  .00000072  00000-0  64177-4 0  9990","line2":"2 33591  99.1831 182.5808 0014536 147.1540 213.0537 14.12473902636017"},{"@id":"https:\/\/tle.ivanstanojevic.me\/api\/tle\/45257","@type":"TleModel","satelliteId":45257,"name":"1998-067RA","date":"2021-06-10T19:33:56+00:00","line1":"1 45257U 98067RA  21161.81524028  .00009181  00000-0  12816-3 0  9994","line2":"2 45257  51.6397   0.6100 0006316 243.4710 116.5635 15.57657702 74227"},{"@id":"https:\/\/tle.ivanstanojevic.me\/api\/tle\/39444","@type":"TleModel","satelliteId":39444,"name":"FUNCUBE-1 (AO-73)","date":"2021-06-10T16:25:30+00:00","line1":"1 39444U 13066AE  21161.68438262  .00000275  00000-0  39679-4 0  9992","line2":"2 39444  97.5828 148.7257 0057790 172.1466 188.0667 14.82425580406436"},{"@id":"https:\/\/tle.ivanstanojevic.me\/api\/tle\/39440","@type":"TleModel","satelliteId":39440,"name":"CUBEBUG-2 (LO-74)","date":"2021-06-10T19:25:44+00:00","line1":"1 39440U 13066AA  21161.80953943  .00000193  00000-0  33820-4 0  9991","line2":"2 39440  97.6756 131.4820 0078252 256.9296 102.3172 14.76247404405446"},{"@id":"https:\/\/tle.ivanstanojevic.me\/api\/tle\/43017","@type":"TleModel","satelliteId":43017,"name":"RADFXSAT (FOX-1B)","date":"2021-06-10T16:56:16+00:00","line1":"1 43017U 17073E   21161.70574832  .00000679  00000-0  58064-4 0  9999","line2":"2 43017  97.7077  65.9593 0254087 322.7255  35.6554 14.79555444192124"},{"@id":"https:\/\/tle.ivanstanojevic.me\/api\/tle\/25338","@type":"TleModel","satelliteId":25338,"name":"NOAA 15","date":"2021-06-11T04:36:29+00:00","line1":"1 25338U 98030A   21162.19200390  .00000080  00000-0  51909-4 0  9993","line2":"2 25338  98.6817 190.7731 0009304 302.5903  57.4378 14.26036376200350"},{"@id":"https:\/\/tle.ivanstanojevic.me\/api\/tle\/39430","@type":"TleModel","satelliteId":39430,"name":"GOMX-1","date":"2021-06-11T02:07:34+00:00","line1":"1 39430U 13066Q   21162.08859626  .00000182  00000-0  41415-4 0  9991","line2":"2 39430  97.8148  85.5253 0151331 134.5183 226.8500 14.59612750402116"},{"@id":"https:\/\/tle.ivanstanojevic.me\/api\/tle\/43881","@type":"TleModel","satelliteId":43881,"name":"D-STAR ONE (SPARROW)","date":"2021-06-10T17:40:47+00:00","line1":"1 43881U 18111F   21161.73665985  .00000264  00000-0  27996-4 0  9995","line2":"2 43881  97.6881  69.7148 0013532 120.7623 239.4933 14.96919304134080"},{"@id":"https:\/\/tle.ivanstanojevic.me\/api\/tle\/40069","@type":"TleModel","satelliteId":40069,"name":"METEOR-M 2","date":"2021-06-11T02:19:12+00:00","line1":"1 40069U 14037A   21162.09666802 -.00000027  00000-0  69899-5 0  9999","line2":"2 40069  98.4606 191.2621 0005048 333.4656  26.6267 14.20684655359134"},{"@id":"https:\/\/tle.ivanstanojevic.me\/api\/tle\/42766","@type":"TleModel","satelliteId":42766,"name":"NIUSAT","date":"2021-06-10T21:00:18+00:00","line1":"1 42766U 17036B   21161.87521239  .00001179  00000-0  53368-4 0  9997","line2":"2 42766  97.2502 208.0779 0014620 192.1913 167.8973 15.22719814220212"},{"@id":"https:\/\/tle.ivanstanojevic.me\/api\/tle\/45598","@type":"TleModel","satelliteId":45598,"name":"QUETZAL-1","date":"2021-06-10T20:10:26+00:00","line1":"1 45598U 98067RL  21161.84058170  .00014247  00000-0  18213-3 0  9991","line2":"2 45598  51.6405   0.7928 0000806 333.8070  26.2882 15.59508266 63529"}],"parameters":{"search":"*","sort":"popularity","sort-dir":"desc","page":1,"page-size":20},"view":{"@id":"https:\/\/tle.ivanstanojevic.me\/api\/tle\/?page=1","@type":"PartialCollectionView","first":"https:\/\/tle.ivanstanojevic.me\/api\/tle\/?page=1","next":"https:\/\/tle.ivanstanojevic.me\/api\/tle\/?page=2","last":"https:\/\/tle.ivanstanojevic.me\/api\/tle\/?page=560"}}